KUIPER-00112            
1 65150U 25171U   25329.50006943 -.00066324  00000+0 -56687-2 0  9997
2 65150  51.8915 257.1885 0009305 172.7471  27.6980 14.97405157  3738
KUIPER-00114            
1 65151U 25171V   25329.25728525 -.00003137  00000+0 -38228-3 0  9992
2 65151  51.8991 277.4068 0006639 116.9457 243.2185 14.79934955 17171
KUIPER-00115            
1 65152U 25171W   25329.13031904  .00006248  00000+0  84697-3 0  9993
2 65152  51.9009 270.4458 0010665 140.9479 219.2255 14.79953191 17268
KUIPER-00116            
1 65153U 25171X   25329.15873385 -.00003411  00000+0 -41765-3 0  9993
2 65153  51.8996 275.3688 0010703 108.4060 251.8067 14.79945978 17199
KUIPER-00118            
1 65154U 25171Y   25329.29100846  .00001433  00000+0  21682-3 0  9990
2 65154  51.9006 277.2329 0001778 119.1360 240.9781 14.79957125 17188
KUIPER-00119            
1 65155U 25171Z   25329.23713422  .00004854  00000+0  66473-3 0  9992
2 65155  51.8998 265.0586 0009223 131.8430 228.3321 14.79955868 17340
KUIPER-00120            
1 65762U 25217A   25329.50006943  .00029986  00000+0  29083-2 0  9998
2 65762  51.8925 154.1282 0015974 306.7750  48.8940 14.92332318  1308
KUIPER-00132            
1 65763U 25217B   25329.21432451  .00043069  00000+0  11769-2 0  9994
2 65763  51.8623 149.4875 0005373 316.5986  43.4577 15.36953521  9344
